COSMOS 2509             
1 40922U 15050C   22058.80013640  .00000043  00000+0  24153-3 0  9991
2 40922  82.4936 336.4768 0014587 220.1767 139.8240 12.42893269291799
PUJIANG 1 (PJ-1)        
1 40925U 15051A   22058.80913286  .00003876  00000+0  11149-3 0  9998
2 40925  97.1246  66.5674 0014164 139.1609 338.3239 15.36274041359629
TIANWANG 1A (TW-1A)     
1 40928U 15051D   22058.81081008  .00019491  00000+0  32885-3 0  9990
2 40928  97.0544  83.0301 0010942  74.9180 100.7822 15.51618821361192
ASTROSAT                
1 40930U 15052A   22057.90064535  .00000992  00000+0  50021-4 0  9998
2 40930   5.9958 246.5847 0008311  27.4582 332.5984 14.76502659346834
LAPAN-A2                
1 40931U 15052B   22058.03037244  .00000842  00000+0  28107-4 0  9995
2 40931   5.9952 236.7367 0013174  43.9574 316.1530 14.76738043346994
EXACTVIEW 9             
1 40936U 15052G   22057.43614224  .00001234  00000+0  82555-4 0  9995
2 40936   6.0027 245.7618 0010245  21.4515 338.6042 14.76899383346773
BEIDOU 20               
1 40938U 15053A   22058.58313391 -.00000087  00000+0  00000+0 0  9992
2 40938  51.6689 277.1319 0043096 193.1201 353.2473  1.00270694 23607
SKY MUSTER 1 (NBN1A)    
1 40940U 15054A   22058.88435387 -.00000297  00000+0  00000+0 0  9992
2 40940   0.0154 178.6430 0001506 163.9641 273.6620  1.00270810 23516
ARSAT 2                 
1 40941U 15054B   22058.55322538 -.00000241  00000+0  00000+0 0  9999
2 40941   0.0189 135.2782 0001542 202.1560 298.0926  1.00269351 23574
MORELOS 3               
1 40946U 15056A   22058.69033235 -.00000056  00000+0  00000+0 0  9998
2 40946   3.8727 333.3738 0003217 359.1252 320.3664  1.00272332 23539
LINGQIAO VIDEO A        
1 40959U 15057B   22058.93280893  .00000194  00000+0  37238-4 0  9994
2 40959  97.7692 110.7443 0017112 318.0913  41.8974 14.73449359343907
LINGQIAO VIDEO B        
1 40960U 15057C   22058.95420351  .00000177  00000+0  34551-4 0  9999
2 40960  97.7723 111.5326 0017116 318.6215  41.3680 14.73564181343931
JILIN 1                 
1 40961U 15057D   22058.92907670  .00000258  00000+0  46672-4 0  9998
2 40961  97.7774 113.1423 0017171 317.0453  42.9404 14.73945025343999
AEROCUBE 5C             
1 40965U 15058B   22058.84548185  .00001012  00000+0  12462-3 0  9994
2 40965  64.7763  63.8686 0204903 234.2106 123.9803 14.75186067132795
AEROCUBE 7              
1 40966U 15058C   22058.33906016  .00001165  00000+0  13965-3 0  9998
2 40966  64.7763  62.8613 0203323 234.0440 124.1658 14.75637641132711
APSTAR 9                
1 40982U 15059A   22057.23420319 -.00000279  00000+0  00000+0 0  9990
2 40982   0.0297 271.7670 0001279  22.8025  87.7527  1.00268970 23397
TURKSAT 4B              
1 40984U 15060A   22058.86641566  .00000097  00000+0  00000+0 0  9990
2 40984   0.0240 134.5483 0001991 214.6578 170.3602  1.00271743 23362
TIANHUI 1-03            
1 40988U 15061A   22058.80549877  .00003204  00000+0  13767-3 0  9992
2 40988  97.3810 180.9942 0009418  84.9428  67.3127 15.23350943352640
NAVSTAR 75 (USA 265)    
1 41019U 15062A   22058.24744240  .00000005  00000+0  00000+0 0  9996
2 41019  55.7219  92.1294 0076655 217.6163 141.9142  2.00562941 46324
CHINASAT 2C (ZX 2C)     
1 41021U 15063A   22058.15950052 -.00000339  00000+0  00000+0 0  9991
2 41021   0.0256 147.4932 0002183 250.0558 280.2180  1.00268830 23253
YAOGAN 28               
1 41026U 15064A   22058.77082321  .00003619  00000+0  15485-3 0  9990
2 41026  97.5346 200.9015 0001793  95.7274  40.3901 15.23467497351532
GSAT-15                 
1 41028U 15065A   22058.80335691 -.00000275  00000+0  00000+0 0  9997
2 41028   0.0846 275.5617 0000530 145.1674 119.5546  1.00269794 23064
BADR-7 (ARABSAT-6B)     
1 41029U 15065B   22058.78983809  .00000127  00000+0  00000+0 0  9990
2 41029   0.0307 212.1214 0003237  33.7535 222.0078  1.00272432 23021
COSMOS 2510             
1 41032U 15066A   22055.54661235  .00001324  00000+0  00000+0 0  9992
2 41032  62.8173 180.9734 6747385 270.8368  18.7110  2.00755297 45896
LAOSAT 1                
1 41034U 15067A   22058.88208619 -.00000361  00000+0  00000+0 0  9999
2 41034   0.0150 311.5863 0001878 358.9156 293.2526  1.00268043 23118
TELSTAR 12V             
1 41036U 15068A   22058.85342014 -.00000137  00000+0  00000+0 0  9998
2 41036   0.0264 137.2844 0002085 205.0645 107.5429  1.00269963 22877
YAOGAN 29               
1 41038U 15069A   22058.94307263  .00000166  00000+0  28682-4 0  9990
2 41038  98.0542  58.6576 0002159  69.8681 290.2771 14.80584690338083
CHINASAT 1C (ZX 1C)     
1 41103U 15073A   22057.43728668 -.00000163  00000+0  00000+0 0  9994
2 41103   3.1133  86.4822 0000570 174.8977 133.6138  1.00270011 22895
ELEKTRO-L 2             
1 41105U 15074A   22058.92534640 -.00000134  00000+0  00000+0 0  9995
2 41105   2.7125  89.4287 0000300  79.3495 307.5308  1.00272904 22777
COSMOS 2513             
1 41121U 15075A   22058.80065314 -.00000156  00000+0  00000+0 0  9992
2 41121   0.0453 114.8039 0001233 216.0257 195.2221  1.00271378 22781
VELOX-CI                
1 41166U 15077A   22058.81279221  .00002579  00000+0  11111-3 0  9997
2 41166  14.9824 270.1320 0011167 333.3033  26.6713 15.10928405342691
KENT RIDGE 1            
1 41167U 15077B   22058.81881000  .00001722  00000+0  63923-4 0  9990
2 41167  14.9801 287.7668 0011403 300.7764 139.2879 15.09670352342651
ATHENOXAT 1             
1 41168U 15077C   22058.59878192  .00008417  00000+0  36697-3 0  9999
2 41168  14.9875 182.7526 0010208 136.2983 327.5301 15.17935889343579
TELEOS 1                
1 41169U 15077D   22058.78511164  .00003270  00000+0  14691-3 0  9996
2 41169  14.9845 260.7817 0010486 346.4753  13.5287 15.11908387342891
GALASSIA                
1 41170U 15077E   22058.67551050  .00008310  00000+0  36228-3 0  9994
2 41170  14.9878 172.5624 0011499 167.8676 192.1923 15.17879955343503
VELOX-II                
1 41171U 15077F   22058.68852347  .00005746  00000+0  27039-3 0  9999
2 41171  14.9899 240.4099 0008415  19.0106 341.0528 15.13964077342947
DAMPE                   
1 41173U 15078A   22058.78608049  .00000531  00000+0  24674-4 0  9991
2 41173  97.3705  51.2905 0012376 220.9428 261.7519 15.24211476344877
GSAT0209 (GALILEO 12)   
1 41174U 15079A   22054.06396079  .00000003  00000+0  00000+0 0  9993
2 41174  55.1207 144.5469 0003539 304.8669  55.1310  1.70473589 37928
GSAT0208 (GALILEO 11)   
1 41175U 15079B   22058.38959086 -.00000022  00000+0  00000+0 0  9998
2 41175  55.1197 144.4266 0002986 301.7253  58.2697  1.70474880 38413
ORBCOMM FM114           
1 41179U 15081A   22058.79451507  .00000108  00000+0  63044-4 0  9991
2 41179  47.0024 202.1542 0002948 227.0726 132.9911 14.54992772328780
ORBCOMM FM110           
1 41182U 15081D   22058.77187862  .00000034  00000+0  45873-4 0  9991
2 41182  47.0011 201.7558 0000660  56.5241 303.5706 14.54981744328659
ORBCOMM FM118           
1 41183U 15081E   22058.68075276  .00000066  00000+0  53254-4 0  9994
2 41183  47.0029 202.3416 0000723  64.2878 295.8081 14.55012687328742
ORBCOMM FM112           
1 41184U 15081F   22058.86858857  .00000228  00000+0  90583-4 0  9995
2 41184  46.9990 110.3666 0002922 274.0570  85.9980 14.54978086329993
ORBCOMM FM113           
1 41185U 15081G   22058.57070730  .00000265  00000+0  99152-4 0  9992
2 41185  47.0013 111.8839 0002571 285.3180  74.7420 14.54968587329936
ORBCOMM FM115           
1 41186U 15081H   22058.53531551  .00000199  00000+0  78375-4 0  9992
2 41186  47.0011 353.0741 0001767 309.0266  51.0462 14.58827461331567
ORBCOMM FM108           
1 41187U 15081J   22058.87160570  .00000201  00000+0  84551-4 0  9996
2 41187  47.0065  21.4518 0001935 219.3340 140.7404 14.54975241331128
ORBCOMM FM117           
1 41188U 15081K   22058.90628826  .00000204  00000+0  85115-4 0  9994
2 41188  47.0024  20.4591 0002948 228.8654 131.1976 14.54999062331172
ORBCOMM FM116           
1 41189U 15081L   22058.41060252  .00000235  00000+0  92245-4 0  9990
2 41189  47.0016 112.4940 0002934 275.9487  84.1063 14.54977426329919
EXPRESS-AMU1            
1 41191U 15082A   22058.86362466  .00000137  00000+0  00000+0 0  9999
2 41191   0.0138 111.7626 0002723 235.3983 157.4559  1.00272868 22533
GAOFEN 4                
1 41194U 15083A   22058.87755084 -.00000353  00000+0  00000+0 0  9997
2 41194   0.1572 103.2430 0002253  45.1763  70.8541  1.00269028 22778
BELINTERSAT-1           
1 41238U 16001A   22058.86667730  .00000089  00000+0  00000+0 0  9991
2 41238   0.0600 296.2270 0000779 242.2883 342.6164  1.00272675 22501
JASON-3                 
1 41240U 16002A   22058.90005159 -.00000052  00000+0  39511-4 0  9996
2 41240  66.0412 156.4463 0008012 273.0720  86.9378 12.80929326285887
IRNSS-1E                
1 41241U 16003A   22057.50396480 -.00000311  00000+0  00000+0 0  9997
2 41241  29.7310  86.3388 0019675 190.4976 172.6889  1.00268931 22326
EUTELSAT 9B             
1 41310U 16005A   22058.85821715  .00000043  00000+0  00000+0 0  9990
2 41310   0.0368  65.8435 0003718 238.3301 171.4010  1.00270275 22370
NAVSTAR 76 (USA 266)    
1 41328U 16007A   22058.34495943 -.00000031  00000+0  00000+0 0  9993
2 41328  54.8881 151.8459 0058475 227.8509 131.6638  2.00575312 44336
COSMOS 2514 [GLONASS-M] 
1 41330U 16008A   22058.43243919 -.00000079  00000+0  00000+0 0  9993
2 41330  65.5857   6.4110 0010003 226.7110 311.9855  2.13102904 47144
KMS 4                   
1 41332U 16009A   22058.75116999  .00010454  00000+0  27002-3 0  9990
2 41332  97.2557 135.0057 0019421   7.0907 353.0609 15.39120835338941
SENTINEL-3A             
1 41335U 16011A   22058.93850400  .00000031  00000+0  31000-4 0  9992
2 41335  98.6212 127.8078 0001094  97.8367 262.2938 14.26737461314150
HORYU-4                 
1 41340U 16012D   22058.91986494  .00002155  00000+0  15167-3 0  9994
2 41340  31.0054 338.2140 0013671 192.4175 167.6125 15.02526275331230
